{
  "type": "FeatureCollection",
  "features": [
    {
      "type": "Feature",
      "properties": {
        "norad_id": 45358,
        "name": "COSMOS 2545 (760)",
        "group": "gnss",
        "lat": -50.09132288251184,
        "lon": -75.71805503893914,
        "alt_km": 19117.489109933882,
        "timestamp": "2025-12-08T03:50:07.241660+00:00",
        "meta_object_name": "COSMOS 2545 (760)",
        "meta_object_id": "2020-018A",
        "meta_epoch": "2025-12-01T04:43:25.038912",
        "meta_mean_motion": 2.13102323,
        "meta_eccentricity": 0.00119194,
        "meta_inclination": 64.4762,
        "meta_ra_of_asc_node": 319.3749,
        "meta_arg_of_pericenter": 248.338,
        "meta_mean_anomaly": 111.5456,
        "meta_ephemeris_type": 0,
        "meta_classification_type": "U",
        "meta_norad_cat_id": 45358,
        "meta_element_set_no": 999,
        "meta_rev_at_epoch": 4444,
        "meta_bstar": 0,
        "meta_mean_motion_dot": -2.8e-07,
        "meta_mean_motion_ddot": 0,
        "tle_line1": "1 45358U 20018A   25335.19681758 -.00000028  00000+0  00000+0 0  9998",
        "tle_line2": "2 45358  64.4762 319.3749 0011919 248.3380 111.5456  2.13102323 44447"
      },
      "geometry": {
        "type": "Point",
        "coordinates": [
          -75.71805503893914,
          -50.09132288251184
        ]
      }
    },
    {
      "type": "Feature",
      "properties": {
        "norad_id": 45807,
        "name": "BEIDOU-3 G3 (C61)",
        "group": "gnss",
        "lat": 0.026051659072045777,
        "lon": -114.8541164260444,
        "alt_km": 35800.20555132306,
        "timestamp": "2025-12-08T03:50:07.241674+00:00",
        "meta_object_name": "BEIDOU-3 G3 (C61)",
        "meta_object_id": "2020-040A",
        "meta_epoch": "2025-12-07T02:10:35.134752",
        "meta_mean_motion": 1.00276518,
        "meta_eccentricity": 0.00059287,
        "meta_inclination": 1.9771,
        "meta_ra_of_asc_node": 66.5675,
        "meta_arg_of_pericenter": 306.2403,
        "meta_mean_anomaly": 206.4387,
        "meta_ephemeris_type": 0,
        "meta_classification_type": "U",
        "meta_norad_cat_id": 45807,
        "meta_element_set_no": 999,
        "meta_rev_at_epoch": 2014,
        "meta_bstar": 0,
        "meta_mean_motion_dot": -3.5e-06,
        "meta_mean_motion_ddot": 0,
        "tle_line1": "1 45807U 20040A   25341.09068443 -.00000350  00000+0  00000+0 0  9996",
        "tle_line2": "2 45807   1.9771  66.5675 0005928 306.2403 206.4387  1.00276518 20145"
      },
      "geometry": {
        "type": "Point",
        "coordinates": [
          -114.8541164260444,
          0.026051659072045777
        ]
      }
    },
    {
      "type": "Feature",
      "properties": {
        "norad_id": 45854,
        "name": "GPS BIII-3  (PRN 23)",
        "group": "gnss",
        "lat": -55.67190944306485,
        "lon": -38.96661271789273,
        "alt_km": 20145.64843086901,
        "timestamp": "2025-12-08T03:50:07.241687+00:00",
        "meta_object_name": "GPS BIII-3  (PRN 23)",
        "meta_object_id": "2020-041A",
        "meta_epoch": "2025-12-06T06:48:20.878272",
        "meta_mean_motion": 2.00561679,
        "meta_eccentricity": 0.00603304,
        "meta_inclination": 56.5425,
        "meta_ra_of_asc_node": 36.4371,
        "meta_arg_of_pericenter": 203.1563,
        "meta_mean_anomaly": 159.699,
        "meta_ephemeris_type": 0,
        "meta_classification_type": "U",
        "meta_norad_cat_id": 45854,
        "meta_element_set_no": 999,
        "meta_rev_at_epoch": 4017,
        "meta_bstar": 0,
        "meta_mean_motion_dot": -7e-07,
        "meta_mean_motion_ddot": 0,
        "tle_line1": "1 45854U 20041A   25340.28357498 -.00000070  00000+0  00000+0 0  9999",
        "tle_line2": "2 45854  56.5425  36.4371 0060330 203.1563 159.6990  2.00561679 40178"
      },
      "geometry": {
        "type": "Point",
        "coordinates": [
          -38.96661271789273,
          -55.67190944306485
        ]
      }
    },
    {
      "type": "Feature",
      "properties": {
        "norad_id": 46114,
        "name": "GALAXY 30 (WAAS/PRN 135)",
        "group": "gnss",
        "lat": 0.021386384514899492,
        "lon": 9.71646860800956,
        "alt_km": 35790.72748057207,
        "timestamp": "2025-12-08T03:50:07.241701+00:00",
        "meta_object_name": "GALAXY 30 (WAAS/PRN 135)",
        "meta_object_id": "2020-056C",
        "meta_epoch": "2025-12-07T06:11:27.743136",
        "meta_mean_motion": 1.00270615,
        "meta_eccentricity": 0.00024689,
        "meta_inclination": 0.0168,
        "meta_ra_of_asc_node": 334.3319,
        "meta_arg_of_pericenter": 280.5472,
        "meta_mean_anomaly": 149.2672,
        "meta_ephemeris_type": 0,
        "meta_classification_type": "U",
        "meta_norad_cat_id": 46114,
        "meta_element_set_no": 999,
        "meta_rev_at_epoch": 1936,
        "meta_bstar": 0,
        "meta_mean_motion_dot": 4.2e-07,
        "meta_mean_motion_ddot": 0,
        "tle_line1": "1 46114U 20056C   25341.25795999  .00000042  00000+0  00000+0 0  9993",
        "tle_line2": "2 46114   0.0168 334.3319 0002468 280.5472 149.2672  1.00270615 19369"
      },
      "geometry": {
        "type": "Point",
        "coordinates": [
          9.71646860800956,
          0.021386384514899492
        ]
      }
    },
    {
      "type": "Feature",
      "properties": {
        "norad_id": 46805,
        "name": "COSMOS 2547 (705K)",
        "group": "gnss",
        "lat": 20.267764928969168,
        "lon": 8.745456995119257,
        "alt_km": 19122.85371492483,
        "timestamp": "2025-12-08T03:50:07.241719+00:00",
        "meta_object_name": "COSMOS 2547 (705K)",
        "meta_object_id": "2020-075A",
        "meta_epoch": "2025-12-07T00:22:59.780352",
        "meta_mean_motion": 2.13099929,
        "meta_eccentricity": 0.00062312,
        "meta_inclination": 64.5959,
        "meta_ra_of_asc_node": 198.8877,
        "meta_arg_of_pericenter": 228.9234,
        "meta_mean_anomaly": 131.1078,
        "meta_ephemeris_type": 0,
        "meta_classification_type": "U",
        "meta_norad_cat_id": 46805,
        "meta_element_set_no": 999,
        "meta_rev_at_epoch": 3981,
        "meta_bstar": 0,
        "meta_mean_motion_dot": 6.4e-07,
        "meta_mean_motion_ddot": 0,
        "tle_line1": "1 46805U 20075A   25341.01596968  .00000064  00000+0  00000+0 0  9994",
        "tle_line2": "2 46805  64.5959 198.8877 0006231 228.9234 131.1078  2.13099929 39819"
      },
      "geometry": {
        "type": "Point",
        "coordinates": [
          8.745456995119257,
          20.267764928969168
        ]
      }
    },
    {
      "type": "Feature",
      "properties": {
        "norad_id": 46826,
        "name": "GPS BIII-4  (PRN 14)",
        "group": "gnss",
        "lat": -49.016954079288,
        "lon": 95.23541636072582,
        "alt_km": 20065.563245263525,
        "timestamp": "2025-12-08T03:50:07.241731+00:00",
        "meta_object_name": "GPS BIII-4  (PRN 14)",
        "meta_object_id": "2020-078A",
        "meta_epoch": "2025-11-12T03:01:29.191584",
        "meta_mean_motion": 2.00567032,
        "meta_eccentricity": 0.00639112,
        "meta_inclination": 54.0223,
        "meta_ra_of_asc_node": 219.5836,
        "meta_arg_of_pericenter": 203.4986,
        "meta_mean_anomaly": 326.7753,
        "meta_ephemeris_type": 0,
        "meta_classification_type": "U",
        "meta_norad_cat_id": 46826,
        "meta_element_set_no": 999,
        "meta_rev_at_epoch": 3715,
        "meta_bstar": 0,
        "meta_mean_motion_dot": -3.4e-07,
        "meta_mean_motion_ddot": 0,
        "tle_line1": "1 46826U 20078A   25316.12603231 -.00000034  00000+0  00000+0 0  9994",
        "tle_line2": "2 46826  54.0223 219.5836 0063911 203.4986 326.7753  2.00567032 37154"
      },
      "geometry": {
        "type": "Point",
        "coordinates": [
          95.23541636072582,
          -49.016954079288
        ]
      }
    },
    {
      "type": "Feature",
      "properties": {
        "norad_id": 48859,
        "name": "GPS BIII-5  (PRN 11)",
        "group": "gnss",
        "lat": 52.13278423000666,
        "lon": 43.317165615447585,
        "alt_km": 20238.202118563302,
        "timestamp": "2025-12-08T03:50:07.241742+00:00",
        "meta_object_name": "GPS BIII-5  (PRN 11)",
        "meta_object_id": "2021-054A",
        "meta_epoch": "2025-11-30T17:12:22.002912",
        "meta_mean_motion": 2.00553932,
        "meta_eccentricity": 0.0024653,
        "meta_inclination": 55.2606,
        "meta_ra_of_asc_node": 340.4377,
        "meta_arg_of_pericenter": 232.9477,
        "meta_mean_anomaly": 227.2059,
        "meta_ephemeris_type": 0,
        "meta_classification_type": "U",
        "meta_norad_cat_id": 48859,
        "meta_element_set_no": 999,
        "meta_rev_at_epoch": 3277,
        "meta_bstar": 0,
        "meta_mean_motion_dot": -5.5e-07,
        "meta_mean_motion_ddot": 0,
        "tle_line1": "1 48859U 21054A   25334.71692133 -.00000055  00000+0  00000+0 0  9994",
        "tle_line2": "2 48859  55.2606 340.4377 0024653 232.9477 227.2059  2.00553932 32777"
      },
      "geometry": {
        "type": "Point",
        "coordinates": [
          43.317165615447585,
          52.13278423000666
        ]
      }
    }
  ]
}